
# C41 (GNSS)
1 44864U 19090A   25214.22573028 -.00000054  00000+0  00000+0 0  9996
2 44864  56.2739  73.3555 0016116 290.5684 235.9928  1.86231879 38292

# C42 (GNSS)
1 44865U 19090B   25214.13999234 -.00000055  00000+0  00000+0 0  9999
2 44865  56.2755  73.3924 0013938 306.0031 252.7072  1.86231795 38271

# C60 (GNSS)
1 45344U 20017A   25214.50530971 -.00000134  00000+0  00000+0 0  9991
2 45344   2.9519  41.3661 0001770  92.8592  79.0506  1.00273228 20069

# C61 (GNSS)
1 45807U 20040A   25214.42590420 -.00000346  00000+0  00000+0 0  9992
2 45807   1.6678  64.9831 0004536 344.0072 166.1619  1.00272218 18870

# C62 (GNSS)
1 56564U 23066A   25214.53377942 -.00000101  00000+0  00000+0 0  9998
2 56564   1.1166 294.0948 0006626 196.3443 173.0158  1.00273959  8200

# C50 (GNSS)
1 58654U 23207A   25212.73592412 -.00000063  00000+0  00000+0 0  9995
2 58654  55.4622  73.1367 0001642   2.0592 358.0109  1.86230066 10876

# E24 (GNSS)
1 40889U 15045A   25212.96118367  .00000065  00000+0  00000+0 0  9996
2 40889  55.0527 230.4492 0003000  11.4766 348.5718  1.70473725 61556

# E30 (GNSS)
1 40890U 15045B   25213.76843680  .00000071  00000+0  00000+0 0  9997
2 40890  55.0514 230.4222 0001712 325.0881  34.9449  1.70473677 61592

# E07 (GNSS)
1 41859U 16069A   25211.88431473 -.00000028  00000+0  00000+0 0  9997
2 41859  55.2979 109.9865 0003730 341.5372  18.4957  1.70473724 53920

# E08 (GNSS)
1 41175U 15079B   25208.87798620 -.00000024  00000+0  00000+0 0  9999
2 41175  55.6281 110.1644 0004299 337.8909  22.1354  1.70473761 59666

# E09 (GNSS)
1 41174U 15079A   25213.35066137 -.00000028  00000+0  00000+0 0  9992
2 41174  55.6310 110.0441 0004219 348.2906  11.7445  1.70473911 59322

# E01 (GNSS)
1 41550U 16030B   25213.36530800  .00000069  00000+0  00000+0 0  9996
2 41550  55.2002 230.4871 0004523 240.5012 119.4968  1.70474017 57218

# E02 (GNSS)
1 41549U 16030A   25214.28073180  .00000075  00000+0  00000+0 0  9996
2 41549  55.2007 230.4638 0003215 311.9520  48.0669  1.70473768 57213

# E03 (GNSS)
1 41860U 16069B   25214.08443973 -.00000028  00000+0  00000+0 0  9992
2 41860  55.2969 109.9210 0003546   9.1415 350.9091  1.70473889 54213

# E04 (GNSS)
1 41861U 16069C   25213.27909743 -.00000029  00000+0  00000+0 0  9996
2 41861  55.2989 109.9508 0003666 307.3309  52.6805  1.70474337 54065

# E05 (GNSS)
1 41862U 16069D   25214.01146511 -.00000028  00000+0  00000+0 0  9995
2 41862  55.2976 109.9234 0002782 318.9167  41.1065  1.70474009 54209

# E21 (GNSS)
1 43055U 17079A   25213.32807262  .00000068  00000+0  00000+0 0  9996
2 43055  55.1779 230.3062 0003609 262.3869  97.6147  1.70474472 47532

# E25 (GNSS)
1 43056U 17079B   25214.20603844  .00000074  00000+0  00000+0 0  9992
2 43056  55.1793 230.2820 0004873 272.4873  87.5025  1.70474599 47567

# E27 (GNSS)
1 43057U 17079C   25213.84009910  .00000072  00000+0  00000+0 0  9994
2 43057  55.1773 230.2901 0004095 284.6631  75.3358  1.70474532 47548

# E31 (GNSS)
1 43058U 17079D   25212.30041917  .00000061  00000+0  00000+0 0  9996
2 43058  55.1774 230.3300 0005342 269.8203  90.1580  1.70474528 47547

# E36 (GNSS)
1 43566U 18060C   25213.81666770 -.00000096  00000+0  00000+0 0  9997
2 43566  57.2639 350.4103 0001948 279.8734  80.1052  1.70476137 43746

# E13 (GNSS)
1 43567U 18060D   25213.45093571 -.00000097  00000+0  00000+0 0  9992
2 43567  57.2637 350.4201 0002182 273.1528  86.8225  1.70476296 43722

# E15 (GNSS)
1 43564U 18060A   25212.78963231 -.00000099  00000+0  00000+0 0  9995
2 43564  57.2613 350.4334 0002877 270.9405  89.0261  1.70476308 43707

# E33 (GNSS)
1 43565U 18060B   25214.18194647 -.00000095  00000+0  00000+0 0  9995
2 43565  57.2649 350.3988 0003234 227.7890 132.1844  1.70476075 43772

# E34 (GNSS)
1 49809U 21116A   25212.71990149 -.00000099  00000+0  00000+0 0  9990
2 49809  57.2535 350.3312 0002725 190.5810 171.4080  1.70476517 22728

# E10 (GNSS)
1 49810U 21116B   25213.69142021 -.00000097  00000+0  00000+0 0  9996
2 49810  57.2541 350.3039 0002225 178.9327 171.8666  1.70476598 22757

# R01 (GNSS)
1 36111U 09070A   25213.99628344 -.00000032  00000+0  00000+0 0  9990
2 36111  64.8214  81.8760 0002982 341.1059 201.4410  2.13103830121628

# R02 (GNSS)
1 39155U 13019A   25211.93774401 -.00000035  00000+0  00000+0 0  9990
2 39155  65.2383  84.4000 0022210 230.2225 129.6550  2.13104697 95433

# R03 (GNSS)
1 37867U 11064A   25214.12652987 -.00000031  00000+0  00000+0 0  9990
2 37867  65.0859  83.6575 0021764 234.4090 317.5155  2.13101651106961

# R04 (GNSS)
1 44850U 19088A   25213.93166642 -.00000032  00000+0  00000+0 0  9991
2 44850  65.3852  84.3995 0011818 253.3595 106.5837  2.13102106 43914

# R05 (GNSS)
1 43508U 18053A   25213.98723920 -.00000031  00000+0  00000+0 0  9993
2 43508  65.3977  84.5685 0006757 224.1764 135.8427  2.13102351 55475

# R06 (GNSS)
1 36112U 09070B   25214.23956282 -.00000030  00000+0  00000+0 0  9992
2 36112  64.8068  81.7180 0004698 131.7017   7.8558  2.13101306121632

# R07 (GNSS)
1 37868U 11064B   25214.11552760 -.00000031  00000+0  00000+0 0  9998
2 37868  65.0927  83.7343 0018852 235.1699 128.5532  2.13103161106966

# R08 (GNSS)
1 37869U 11064C   25213.20024847 -.00000035  00000+0  00000+0 0  9992
2 37869  65.0991  83.7840 0023935 250.7127  87.3937  2.13101986106949

# R09 (GNSS)
1 40315U 14075A   25209.04240284  .00000048  00000+0  00000+0 0  9992
2 40315  63.6180 201.5921 0021845 211.9577 147.9070  2.13101461 82941

# R10 (GNSS)
1 32395U 07065C   25209.79492229  .00000057  00000+0  00000+0 0  9992
2 32395  64.3271 202.8918 0016779 353.0424 183.8329  2.13100200136832

# R11 (GNSS)
1 46805U 20075A   25211.02963310  .00000073  00000+0  00000+0 0  9990
2 46805  64.5992 203.2260 0009131 240.8469 119.0647  2.13100181 37041

# R12 (GNSS)
1 44299U 19030A   25211.56025157  .00000079  00000+0  00000+0 0  9997
2 44299  64.3688 203.4452 0013466 276.9710  80.4619  2.13102368 48069

# R13 (GNSS)
1 32393U 07065A   25213.95815943  .00000097  00000+0  00000+0 0  9999
2 32393  64.3186 202.6824 0000782 329.7795  27.2956  2.13101419136961

# R14 (GNSS)
1 42939U 17055A   25214.02677177  .00000096  00000+0  00000+0 0  9999
2 42939  64.0799 202.7465 0010544 241.1395 118.7645  2.13102016 61172

# R15 (GNSS)
1 43687U 18086A   25214.55415798  .00000098  00000+0  00000+0 0  9994
2 43687  64.2957 203.3520 0011844 257.9777 101.9011  2.13102099 52490

# R16 (GNSS)
1 54377U 22161A   25214.14439189  .00000098  00000+0  00000+0 0  9996
2 54377  64.7411 203.3005 0011843 225.1063 134.8087  2.13102156 20835

# R17 (GNSS)
1 41330U 16008A   25214.18813720 -.00000083  00000+0  00000+0 0  9990
2 41330  65.2070 323.9422 0012205 203.9494 156.0176  2.13102692 73821

# R18 (GNSS)
1 39620U 14012A   25214.24171184 -.00000083  00000+0  00000+0 0  9990
2 39620  65.4795 324.7627 0010788 315.1543  44.7812  2.13103322 88442

# R19 (GNSS)
1 54031U 22130A   25205.85308046 -.00000083  00000+0  00000+0 0  9999
2 54031  64.4589 326.0961 0012735 181.0048 178.9993  2.13101610 21710

# R20 (GNSS)
1 32276U 07052B   25212.47544574 -.00000084  00000+0  00000+0 0  9997
2 32276  65.7689 326.8344 0007771 319.3920  33.9220  2.13103254138251

# R21 (GNSS)
1 40001U 14032A   25211.60012783 -.00000083  00000+0  00000+0 0  9993
2 40001  65.4172 324.6248 0008288 194.3763 165.6226  2.13105894 86601

# R22 (GNSS)
1 52984U 22075A   25209.31909016 -.00000081  00000+0  00000+0 0  9999
2 52984  64.4845 325.8804 0011359 272.6553  87.2324  2.13102271 23819

# R23 (GNSS)
1 36402U 10007C   25212.41549297 -.00000084  00000+0  00000+0 0  9997
2 36402  65.6017 325.3071 0001596 165.4600  12.1893  2.13106368119898

# R24 (GNSS)
1 45358U 20018A   25212.25083500 -.00000085  00000+0  00000+0 0  9993
2 45358  64.5451 323.6846 0009961 233.1154 126.8174  2.13102601 41828

# R25 (GNSS)
1 32275U 07052A   25213.82015196 -.00000084  00000+0  00000+0 0  9999
2 32275  65.7524 326.6678 0003852 213.2178 146.7787  2.13104267138255
